{
  "type": "FeatureCollection",
  "features": [
    {
      "type": "Feature",
      "geometry": {
        "type": "Point",
        "coordinates": [
          -0.1987738,
          52.3359416
        ]
      },
      "properties": {
        "id": "osm-n-60747556",
        "category": "parking",
        "name": "Parking",
        "wheelchair": null,
        "fee": null,
        "opening_hours": null,
        "source": "osm"
      }
    },
    {
      "type": "Feature",
      "geometry": {
        "type": "Point",
        "coordinates": [
          -0.209555,
          52.3297558
        ]
      },
      "properties": {
        "id": "osm-n-280781199",
        "category": "cafe",
        "name": "Hinchingbrooke Country Park Cafe",
        "wheelchair": null,
        "fee": null,
        "opening_hours": null,
        "source": "osm"
      }
    },
    {
      "type": "Feature",
      "geometry": {
        "type": "Point",
        "coordinates": [
          -0.2094527,
          52.3298206
        ]
      },
      "properties": {
        "id": "osm-n-280781200",
        "category": "toilet",
        "name": "Toilet",
        "wheelchair": null,
        "fee": null,
        "opening_hours": null,
        "source": "osm"
      }
    },
    {
      "type": "Feature",
      "geometry": {
        "type": "Point",
        "coordinates": [
          -0.2261853,
          52.3522398
        ]
      },
      "properties": {
        "id": "osm-n-1035287948",
        "category": "parking",
        "name": "Parking",
        "wheelchair": null,
        "fee": null,
        "opening_hours": null,
        "source": "osm"
      }
    },
    {
      "type": "Feature",
      "geometry": {
        "type": "Point",
        "coordinates": [
          -0.2262067,
          52.3528378
        ]
      },
      "properties": {
        "id": "osm-n-1035287951",
        "category": "parking",
        "name": "Parking",
        "wheelchair": null,
        "fee": null,
        "opening_hours": null,
        "source": "osm"
      }
    },
    {
      "type": "Feature",
      "geometry": {
        "type": "Point",
        "coordinates": [
          -0.214579,
          52.3360038
        ]
      },
      "properties": {
        "id": "osm-n-1551696526",
        "category": "parking",
        "name": "Parking",
        "wheelchair": null,
        "fee": null,
        "opening_hours": null,
        "source": "osm"
      }
    },
    {
      "type": "Feature",
      "geometry": {
        "type": "Point",
        "coordinates": [
          -0.2083777,
          52.3309362
        ]
      },
      "properties": {
        "id": "osm-n-3387724784",
        "category": "info",
        "name": "Huntingdonshire DC",
        "wheelchair": null,
        "fee": null,
        "opening_hours": null,
        "source": "osm"
      }
    },
    {
      "type": "Feature",
      "geometry": {
        "type": "Point",
        "coordinates": [
          -0.2035007,
          52.3335759
        ]
      },
      "properties": {
        "id": "osm-n-5320808654",
        "category": "parking",
        "name": "Parking",
        "wheelchair": null,
        "fee": null,
        "opening_hours": null,
        "source": "osm"
      }
    },
    {
      "type": "Feature",
      "geometry": {
        "type": "Point",
        "coordinates": [
          -0.2497414,
          52.3310311
        ]
      },
      "properties": {
        "id": "osm-n-6936816891",
        "category": "parking",
        "name": "Parking",
        "wheelchair": null,
        "fee": "no",
        "opening_hours": null,
        "source": "osm"
      }
    },
    {
      "type": "Feature",
      "geometry": {
        "type": "Point",
        "coordinates": [
          -0.2270883,
          52.3237814
        ]
      },
      "properties": {
        "id": "osm-n-10553527937",
        "category": "aed",
        "name": "Aed",
        "wheelchair": null,
        "fee": null,
        "opening_hours": null,
        "source": "osm"
      }
    },
    {
      "type": "Feature",
      "geometry": {
        "type": "Point",
        "coordinates": [
          -0.2229313,
          52.3242246
        ]
      },
      "properties": {
        "id": "osm-n-10553527938",
        "category": "aed",
        "name": "Aed",
        "wheelchair": null,
        "fee": null,
        "opening_hours": null,
        "source": "osm"
      }
    },
    {
      "type": "Feature",
      "geometry": {
        "type": "Point",
        "coordinates": [
          -0.2067021,
          52.3263949
        ]
      },
      "properties": {
        "id": "osm-n-10772044161",
        "category": "info",
        "name": "Info",
        "wheelchair": null,
        "fee": null,
        "opening_hours": null,
        "source": "osm"
      }
    },
    {
      "type": "Feature",
      "geometry": {
        "type": "Point",
        "coordinates": [
          -0.206944,
          52.3347404
        ]
      },
      "properties": {
        "id": "osm-n-10846993736",
        "category": "shop",
        "name": "Budgens",
        "wheelchair": null,
        "fee": null,
        "opening_hours": null,
        "source": "osm"
      }
    },
    {
      "type": "Feature",
      "geometry": {
        "type": "Point",
        "coordinates": [
          -0.2044388,
          52.3226402
        ]
      },
      "properties": {
        "id": "osm-n-11280069376",
        "category": "info",
        "name": "Info",
        "wheelchair": null,
        "fee": null,
        "opening_hours": null,
        "source": "osm"
      }
    },
    {
      "type": "Feature",
      "geometry": {
        "type": "Point",
        "coordinates": [
          -0.2518107,
          52.3322353
        ]
      },
      "properties": {
        "id": "osm-w-3046856",
        "category": "parking",
        "name": "Parking",
        "wheelchair": null,
        "fee": null,
        "opening_hours": null,
        "source": "osm"
      }
    },
    {
      "type": "Feature",
      "geometry": {
        "type": "Point",
        "coordinates": [
          -0.2048106,
          52.3339043
        ]
      },
      "properties": {
        "id": "osm-w-11278107",
        "category": "parking",
        "name": "Hinchingbrooke Hospital Staff Car Park",
        "wheelchair": null,
        "fee": null,
        "opening_hours": null,
        "source": "osm"
      }
    },
    {
      "type": "Feature",
      "geometry": {
        "type": "Point",
        "coordinates": [
          -0.2000057,
          52.3316858
        ]
      },
      "properties": {
        "id": "osm-w-22699746",
        "category": "parking",
        "name": "Parking",
        "wheelchair": null,
        "fee": null,
        "opening_hours": null,
        "source": "osm"
      }
    },
    {
      "type": "Feature",
      "geometry": {
        "type": "Point",
        "coordinates": [
          -0.2021603,
          52.3324685
        ]
      },
      "properties": {
        "id": "osm-w-25747046",
        "category": "hospital",
        "name": "Hinchingbrooke Hospital",
        "wheelchair": "yes",
        "fee": null,
        "opening_hours": null,
        "source": "osm"
      }
    },
    {
      "type": "Feature",
      "geometry": {
        "type": "Point",
        "coordinates": [
          -0.2116711,
          52.3380015
        ]
      },
      "properties": {
        "id": "osm-w-25747088",
        "category": "parking",
        "name": "Parking",
        "wheelchair": null,
        "fee": null,
        "opening_hours": null,
        "source": "osm"
      }
    },
    {
      "type": "Feature",
      "geometry": {
        "type": "Point",
        "coordinates": [
          -0.20658,
          52.3386435
        ]
      },
      "properties": {
        "id": "osm-w-25747090",
        "category": "parking",
        "name": "Parking",
        "wheelchair": null,
        "fee": null,
        "opening_hours": null,
        "source": "osm"
      }
    },
    {
      "type": "Feature",
      "geometry": {
        "type": "Point",
        "coordinates": [
          -0.2059749,
          52.3361872
        ]
      },
      "properties": {
        "id": "osm-w-25747105",
        "category": "parking",
        "name": "Parking",
        "wheelchair": null,
        "fee": null,
        "opening_hours": null,
        "source": "osm"
      }
    },
    {
      "type": "Feature",
      "geometry": {
        "type": "Point",
        "coordinates": [
          -0.2097006,
          52.3294611
        ]
      },
      "properties": {
        "id": "osm-w-25747205",
        "category": "parking",
        "name": "Parking",
        "wheelchair": null,
        "fee": null,
        "opening_hours": null,
        "source": "osm"
      }
    },
    {
      "type": "Feature",
      "geometry": {
        "type": "Point",
        "coordinates": [
          -0.2095538,
          52.3297929
        ]
      },
      "properties": {
        "id": "osm-w-25747233",
        "category": "info",
        "name": "Hinchingbrooke Country Park Visitor Centre",
        "wheelchair": null,
        "fee": null,
        "opening_hours": null,
        "source": "osm"
      }
    },
    {
      "type": "Feature",
      "geometry": {
        "type": "Point",
        "coordinates": [
          -0.2031831,
          52.3317447
        ]
      },
      "properties": {
        "id": "osm-w-25747234",
        "category": "parking",
        "name": "Parking",
        "wheelchair": null,
        "fee": null,
        "opening_hours": null,
        "source": "osm"
      }
    },
    {
      "type": "Feature",
      "geometry": {
        "type": "Point",
        "coordinates": [
          -0.2079603,
          52.3311705
        ]
      },
      "properties": {
        "id": "osm-w-25747299",
        "category": "parking",
        "name": "Hinchingbrooke Country Park",
        "wheelchair": null,
        "fee": "yes",
        "opening_hours": null,
        "source": "osm"
      }
    },
    {
      "type": "Feature",
      "geometry": {
        "type": "Point",
        "coordinates": [
          -0.2271181,
          52.323583
        ]
      },
      "properties": {
        "id": "osm-w-30721860",
        "category": "parking",
        "name": "Parking",
        "wheelchair": null,
        "fee": null,
        "opening_hours": null,
        "source": "osm"
      }
    },
    {
      "type": "Feature",
      "geometry": {
        "type": "Point",
        "coordinates": [
          -0.2222894,
          52.3154235
        ]
      },
      "properties": {
        "id": "osm-w-30721899",
        "category": "parking",
        "name": "Parking",
        "wheelchair": null,
        "fee": null,
        "opening_hours": null,
        "source": "osm"
      }
    },
    {
      "type": "Feature",
      "geometry": {
        "type": "Point",
        "coordinates": [
          -0.2273298,
          52.3238197
        ]
      },
      "properties": {
        "id": "osm-w-30721900",
        "category": "parking",
        "name": "Parking",
        "wheelchair": null,
        "fee": null,
        "opening_hours": null,
        "source": "osm"
      }
    },
    {
      "type": "Feature",
      "geometry": {
        "type": "Point",
        "coordinates": [
          -0.2242694,
          52.3129822
        ]
      },
      "properties": {
        "id": "osm-w-30722035",
        "category": "parking",
        "name": "Parking",
        "wheelchair": null,
        "fee": null,
        "opening_hours": null,
        "source": "osm"
      }
    },
    {
      "type": "Feature",
      "geometry": {
        "type": "Point",
        "coordinates": [
          -0.2224464,
          52.3241877
        ]
      },
      "properties": {
        "id": "osm-w-32690779",
        "category": "parking",
        "name": "Hall And Sports",
        "wheelchair": null,
        "fee": null,
        "opening_hours": null,
        "source": "osm"
      }
    },
    {
      "type": "Feature",
      "geometry": {
        "type": "Point",
        "coordinates": [
          -0.2300855,
          52.3371148
        ]
      },
      "properties": {
        "id": "osm-w-73879815",
        "category": "parking",
        "name": "Parking",
        "wheelchair": null,
        "fee": null,
        "opening_hours": null,
        "source": "osm"
      }
    },
    {
      "type": "Feature",
      "geometry": {
        "type": "Point",
        "coordinates": [
          -0.2193616,
          52.3206883
        ]
      },
      "properties": {
        "id": "osm-w-98824524",
        "category": "parking",
        "name": "Parking",
        "wheelchair": null,
        "fee": null,
        "opening_hours": null,
        "source": "osm"
      }
    },
    {
      "type": "Feature",
      "geometry": {
        "type": "Point",
        "coordinates": [
          -0.2044759,
          52.3326709
        ]
      },
      "properties": {
        "id": "osm-w-104624713",
        "category": "parking",
        "name": "Staff car park",
        "wheelchair": null,
        "fee": null,
        "opening_hours": null,
        "source": "osm"
      }
    },
    {
      "type": "Feature",
      "geometry": {
        "type": "Point",
        "coordinates": [
          -0.1974629,
          52.3298336
        ]
      },
      "properties": {
        "id": "osm-w-106456492",
        "category": "parking",
        "name": "Police HQ car park",
        "wheelchair": null,
        "fee": null,
        "opening_hours": null,
        "source": "osm"
      }
    },
    {
      "type": "Feature",
      "geometry": {
        "type": "Point",
        "coordinates": [
          -0.2264801,
          52.3343227
        ]
      },
      "properties": {
        "id": "osm-w-111272182",
        "category": "parking",
        "name": "Parking",
        "wheelchair": null,
        "fee": null,
        "opening_hours": null,
        "source": "osm"
      }
    },
    {
      "type": "Feature",
      "geometry": {
        "type": "Point",
        "coordinates": [
          -0.2273362,
          52.3354197
        ]
      },
      "properties": {
        "id": "osm-w-111276895",
        "category": "parking",
        "name": "Parking",
        "wheelchair": null,
        "fee": null,
        "opening_hours": null,
        "source": "osm"
      }
    },
    {
      "type": "Feature",
      "geometry": {
        "type": "Point",
        "coordinates": [
          -0.2299451,
          52.3356538
        ]
      },
      "properties": {
        "id": "osm-w-111279884",
        "category": "parking",
        "name": "Parking",
        "wheelchair": null,
        "fee": null,
        "opening_hours": null,
        "source": "osm"
      }
    },
    {
      "type": "Feature",
      "geometry": {
        "type": "Point",
        "coordinates": [
          -0.2050037,
          52.3200309
        ]
      },
      "properties": {
        "id": "osm-w-112992371",
        "category": "parking",
        "name": "Parking",
        "wheelchair": null,
        "fee": null,
        "opening_hours": null,
        "source": "osm"
      }
    },
    {
      "type": "Feature",
      "geometry": {
        "type": "Point",
        "coordinates": [
          -0.2010278,
          52.3333533
        ]
      },
      "properties": {
        "id": "osm-w-123286488",
        "category": "parking",
        "name": "hospital staff? CP",
        "wheelchair": null,
        "fee": null,
        "opening_hours": null,
        "source": "osm"
      }
    },
    {
      "type": "Feature",
      "geometry": {
        "type": "Point",
        "coordinates": [
          -0.2039057,
          52.3347459
        ]
      },
      "properties": {
        "id": "osm-w-123286493",
        "category": "parking",
        "name": "Hinchingbrooke Hospital Visitors' Car Park",
        "wheelchair": null,
        "fee": "yes",
        "opening_hours": null,
        "source": "osm"
      }
    },
    {
      "type": "Feature",
      "geometry": {
        "type": "Point",
        "coordinates": [
          -0.2509948,
          52.3314347
        ]
      },
      "properties": {
        "id": "osm-w-128444822",
        "category": "fuel",
        "name": "BP",
        "wheelchair": null,
        "fee": null,
        "opening_hours": null,
        "source": "osm"
      }
    },
    {
      "type": "Feature",
      "geometry": {
        "type": "Point",
        "coordinates": [
          -0.2510687,
          52.3311032
        ]
      },
      "properties": {
        "id": "osm-w-128444823",
        "category": "fuel",
        "name": "BP",
        "wheelchair": null,
        "fee": null,
        "opening_hours": null,
        "source": "osm"
      }
    },
    {
      "type": "Feature",
      "geometry": {
        "type": "Point",
        "coordinates": [
          -0.2105817,
          52.3381803
        ]
      },
      "properties": {
        "id": "osm-w-137221063",
        "category": "parking",
        "name": "Coach Parking",
        "wheelchair": null,
        "fee": null,
        "opening_hours": null,
        "source": "osm"
      }
    },
    {
      "type": "Feature",
      "geometry": {
        "type": "Point",
        "coordinates": [
          -0.2108138,
          52.3380439
        ]
      },
      "properties": {
        "id": "osm-w-137221064",
        "category": "parking",
        "name": "Parking",
        "wheelchair": null,
        "fee": null,
        "opening_hours": null,
        "source": "osm"
      }
    },
    {
      "type": "Feature",
      "geometry": {
        "type": "Point",
        "coordinates": [
          -0.2524008,
          52.3309766
        ]
      },
      "properties": {
        "id": "osm-w-141150735",
        "category": "parking",
        "name": "Parking",
        "wheelchair": null,
        "fee": null,
        "opening_hours": null,
        "source": "osm"
      }
    },
    {
      "type": "Feature",
      "geometry": {
        "type": "Point",
        "coordinates": [
          -0.2523526,
          52.3314216
        ]
      },
      "properties": {
        "id": "osm-w-141150736",
        "category": "parking",
        "name": "Parking",
        "wheelchair": null,
        "fee": null,
        "opening_hours": null,
        "source": "osm"
      }
    },
    {
      "type": "Feature",
      "geometry": {
        "type": "Point",
        "coordinates": [
          -0.2523372,
          52.3318295
        ]
      },
      "properties": {
        "id": "osm-w-141150739",
        "category": "parking",
        "name": "Parking",
        "wheelchair": null,
        "fee": null,
        "opening_hours": null,
        "source": "osm"
      }
    },
    {
      "type": "Feature",
      "geometry": {
        "type": "Point",
        "coordinates": [
          -0.2055427,
          52.3215564
        ]
      },
      "properties": {
        "id": "osm-w-301647272",
        "category": "toilet",
        "name": "Toilet",
        "wheelchair": null,
        "fee": null,
        "opening_hours": null,
        "source": "osm"
      }
    },
    {
      "type": "Feature",
      "geometry": {
        "type": "Point",
        "coordinates": [
          -0.2019684,
          52.3321673
        ]
      },
      "properties": {
        "id": "osm-w-551752931",
        "category": "parking",
        "name": "Parking",
        "wheelchair": null,
        "fee": null,
        "opening_hours": null,
        "source": "osm"
      }
    },
    {
      "type": "Feature",
      "geometry": {
        "type": "Point",
        "coordinates": [
          -0.2010384,
          52.3328349
        ]
      },
      "properties": {
        "id": "osm-w-551752946",
        "category": "parking",
        "name": "Parking",
        "wheelchair": null,
        "fee": null,
        "opening_hours": null,
        "source": "osm"
      }
    },
    {
      "type": "Feature",
      "geometry": {
        "type": "Point",
        "coordinates": [
          -0.2388277,
          52.3247451
        ]
      },
      "properties": {
        "id": "osm-w-611784771",
        "category": "shop",
        "name": "Brampton Convenience Store and Post office",
        "wheelchair": null,
        "fee": null,
        "opening_hours": null,
        "source": "osm"
      }
    },
    {
      "type": "Feature",
      "geometry": {
        "type": "Point",
        "coordinates": [
          -0.2257987,
          52.3226868
        ]
      },
      "properties": {
        "id": "osm-w-613162146",
        "category": "cafe",
        "name": "The Willows",
        "wheelchair": null,
        "fee": null,
        "opening_hours": "We,Th 10:00-16:00; Fr,Sa 10:00-15:00",
        "source": "osm"
      }
    },
    {
      "type": "Feature",
      "geometry": {
        "type": "Point",
        "coordinates": [
          -0.2510096,
          52.3321692
        ]
      },
      "properties": {
        "id": "osm-w-631863221",
        "category": "cafe",
        "name": "Starbucks",
        "wheelchair": null,
        "fee": null,
        "opening_hours": null,
        "source": "osm"
      }
    },
    {
      "type": "Feature",
      "geometry": {
        "type": "Point",
        "coordinates": [
          -0.200748,
          52.3293668
        ]
      },
      "properties": {
        "id": "osm-w-683662057",
        "category": "parking",
        "name": "Parking",
        "wheelchair": null,
        "fee": null,
        "opening_hours": null,
        "source": "osm"
      }
    },
    {
      "type": "Feature",
      "geometry": {
        "type": "Point",
        "coordinates": [
          -0.1998371,
          52.3285476
        ]
      },
      "properties": {
        "id": "osm-w-683662065",
        "category": "parking",
        "name": "Hinchingbrooke School Parking",
        "wheelchair": null,
        "fee": null,
        "opening_hours": null,
        "source": "osm"
      }
    },
    {
      "type": "Feature",
      "geometry": {
        "type": "Point",
        "coordinates": [
          -0.2512701,
          52.3314417
        ]
      },
      "properties": {
        "id": "osm-w-762550775",
        "category": "shop",
        "name": "Marks & Spencer",
        "wheelchair": null,
        "fee": null,
        "opening_hours": "Mo-Su 00:00-24:00",
        "source": "osm"
      }
    },
    {
      "type": "Feature",
      "geometry": {
        "type": "Point",
        "coordinates": [
          -0.2224936,
          52.3171337
        ]
      },
      "properties": {
        "id": "osm-w-830913619",
        "category": "parking",
        "name": "Parking",
        "wheelchair": null,
        "fee": null,
        "opening_hours": null,
        "source": "osm"
      }
    },
    {
      "type": "Feature",
      "geometry": {
        "type": "Point",
        "coordinates": [
          -0.2227331,
          52.3170794
        ]
      },
      "properties": {
        "id": "osm-w-830913620",
        "category": "shop",
        "name": "Co-op Food",
        "wheelchair": null,
        "fee": null,
        "opening_hours": "Mo-Su 07:00-22:00",
        "source": "osm"
      }
    },
    {
      "type": "Feature",
      "geometry": {
        "type": "Point",
        "coordinates": [
          -0.2211285,
          52.3157475
        ]
      },
      "properties": {
        "id": "osm-w-1037231068",
        "category": "cafe",
        "name": "Cafe",
        "wheelchair": null,
        "fee": null,
        "opening_hours": null,
        "source": "osm"
      }
    },
    {
      "type": "Feature",
      "geometry": {
        "type": "Point",
        "coordinates": [
          -0.2412634,
          52.3288562
        ]
      },
      "properties": {
        "id": "osm-w-1257953935",
        "category": "parking",
        "name": "Parking",
        "wheelchair": null,
        "fee": null,
        "opening_hours": null,
        "source": "osm"
      }
    },
    {
      "type": "Feature",
      "geometry": {
        "type": "Point",
        "coordinates": [
          -0.2429717,
          52.3275074
        ]
      },
      "properties": {
        "id": "osm-w-1257953936",
        "category": "parking",
        "name": "Parking",
        "wheelchair": null,
        "fee": null,
        "opening_hours": null,
        "source": "osm"
      }
    },
    {
      "type": "Feature",
      "geometry": {
        "type": "Point",
        "coordinates": [
          -0.2437957,
          52.3277977
        ]
      },
      "properties": {
        "id": "osm-w-1257953937",
        "category": "parking",
        "name": "Parking",
        "wheelchair": null,
        "fee": null,
        "opening_hours": null,
        "source": "osm"
      }
    },
    {
      "type": "Feature",
      "geometry": {
        "type": "Point",
        "coordinates": [
          -0.2436948,
          52.3275887
        ]
      },
      "properties": {
        "id": "osm-w-1257953938",
        "category": "parking",
        "name": "Parking",
        "wheelchair": null,
        "fee": null,
        "opening_hours": null,
        "source": "osm"
      }
    },
    {
      "type": "Feature",
      "geometry": {
        "type": "Point",
        "coordinates": [
          -0.2449269,
          52.3290605
        ]
      },
      "properties": {
        "id": "osm-w-1257953939",
        "category": "parking",
        "name": "Parking",
        "wheelchair": null,
        "fee": null,
        "opening_hours": null,
        "source": "osm"
      }
    },
    {
      "type": "Feature",
      "geometry": {
        "type": "Point",
        "coordinates": [
          -0.242673,
          52.3294789
        ]
      },
      "properties": {
        "id": "osm-w-1257953947",
        "category": "parking",
        "name": "Parking",
        "wheelchair": null,
        "fee": null,
        "opening_hours": null,
        "source": "osm"
      }
    },
    {
      "type": "Feature",
      "geometry": {
        "type": "Point",
        "coordinates": [
          -0.243038,
          52.3269517
        ]
      },
      "properties": {
        "id": "osm-w-1257953948",
        "category": "parking",
        "name": "Parking",
        "wheelchair": null,
        "fee": null,
        "opening_hours": null,
        "source": "osm"
      }
    },
    {
      "type": "Feature",
      "geometry": {
        "type": "Point",
        "coordinates": [
          -0.244684,
          52.3286325
        ]
      },
      "properties": {
        "id": "osm-w-1257953960",
        "category": "parking",
        "name": "Parking",
        "wheelchair": null,
        "fee": null,
        "opening_hours": null,
        "source": "osm"
      }
    },
    {
      "type": "Feature",
      "geometry": {
        "type": "Point",
        "coordinates": [
          -0.2452317,
          52.3287073
        ]
      },
      "properties": {
        "id": "osm-w-1257953961",
        "category": "parking",
        "name": "Parking",
        "wheelchair": null,
        "fee": null,
        "opening_hours": null,
        "source": "osm"
      }
    },
    {
      "type": "Feature",
      "geometry": {
        "type": "Point",
        "coordinates": [
          -0.2448443,
          52.3286643
        ]
      },
      "properties": {
        "id": "osm-w-1257953962",
        "category": "parking",
        "name": "Parking",
        "wheelchair": null,
        "fee": null,
        "opening_hours": null,
        "source": "osm"
      }
    },
    {
      "type": "Feature",
      "geometry": {
        "type": "Point",
        "coordinates": [
          -0.2422301,
          52.3279692
        ]
      },
      "properties": {
        "id": "osm-w-1257953963",
        "category": "parking",
        "name": "Parking",
        "wheelchair": null,
        "fee": null,
        "opening_hours": null,
        "source": "osm"
      }
    },
    {
      "type": "Feature",
      "geometry": {
        "type": "Point",
        "coordinates": [
          -0.2447298,
          52.3278252
        ]
      },
      "properties": {
        "id": "osm-w-1257953964",
        "category": "parking",
        "name": "Parking",
        "wheelchair": null,
        "fee": null,
        "opening_hours": null,
        "source": "osm"
      }
    },
    {
      "type": "Feature",
      "geometry": {
        "type": "Point",
        "coordinates": [
          -0.2443003,
          52.3269471
        ]
      },
      "properties": {
        "id": "osm-w-1257953965",
        "category": "parking",
        "name": "Parking",
        "wheelchair": null,
        "fee": null,
        "opening_hours": null,
        "source": "osm"
      }
    },
    {
      "type": "Feature",
      "geometry": {
        "type": "Point",
        "coordinates": [
          -0.2436529,
          52.326733
        ]
      },
      "properties": {
        "id": "osm-w-1257953966",
        "category": "parking",
        "name": "Parking",
        "wheelchair": null,
        "fee": null,
        "opening_hours": null,
        "source": "osm"
      }
    },
    {
      "type": "Feature",
      "geometry": {
        "type": "Point",
        "coordinates": [
          -0.2206594,
          52.3184927
        ]
      },
      "properties": {
        "id": "osm-w-1462711511",
        "category": "parking",
        "name": "The Dragoon Inn",
        "wheelchair": null,
        "fee": null,
        "opening_hours": null,
        "source": "osm"
      }
    }
  ]
}